OBJECT_NAME,OBJECT_ID,EPOCH,MEAN_MOTION,ECCENTRICITY,INCLINATION,RA_OF_ASC_NODE,ARG_OF_PERICENTER,MEAN_ANOMALY,EPHEMERIS_TYPE,CLASSIFICATION_TYPE,NORAD_CAT_ID,ELEMENT_SET_NO,REV_AT_EPOCH,BSTAR,MEAN_MOTION_DOT,MEAN_MOTION_DDOT
ASTRA 1N,2011-041A,2026-06-14T19:39:38.466144,1.00270335,.0006,0.0926,43.9474,50.6246,122.6505,0,U,37775,999,4450,0,.125E-5,0
BSAT-3C (JCSAT-110R),2011-041B,2026-06-14T21:18:41.878944,1.00271333,.000003,0.0167,5.9141,230.0120,96.8887,0,U,37776,999,5044,0,-.345E-5,0
PAKSAT-1R,2011-042A,2026-06-14T13:17:16.692288,1.00277209,.0002961,0.6820,84.6174,349.8067,65.8486,0,U,37779,999,5445,0,.16E-5,0
SES-2,2011-049A,2026-06-14T19:32:16.700352,1.00270700,.0002607,0.0583,103.4714,339.5955,26.1132,0,U,37809,999,5394,0,-.19E-5,0
ARABSAT-5C,2011-049B,2026-06-14T19:39:38.466144,1.00270708,.0003401,0.0503,11.7547,89.4386,116.8181,0,U,37810,999,5401,0,.129E-5,0
EUTELSAT 7 WEST A,2011-051A,2026-06-14T19:55:03.492192,1.00271128,.0004017,0.0628,9.3292,86.4315,98.8054,0,U,37816,999,5385,0,-.55E-6,0
QUETZSAT 1,2011-054A,2026-06-14T19:35:08.924064,1.00270847,.0002491,0.0182,28.4601,57.5322,33.9112,0,U,37826,999,4985,0,-.236E-5,0
INTELSAT 18 (IS-18),2011-056A,2026-06-14T19:05:41.746848,1.00271456,.0001585,0.0156,296.4719,145.2148,287.8261,0,U,37834,999,5378,0,.59E-6,0
EUTELSAT 16A,2011-057A,2026-06-14T19:39:38.466144,1.00273379,.0005982,0.0451,14.1796,72.5800,127.2589,0,U,37836,999,731,0,.11E-5,0
VIASAT-1,2011-059A,2026-06-14T15:58:56.013312,1.00270861,.0002032,0.0170,332.4100,107.9178,307.2652,0,U,37843,999,4729,0,-.17E-6,0
ASIASAT 7,2011-069A,2026-06-14T20:27:08.807328,1.00272784,.0001209,0.0259,71.6221,343.0229,260.7989,0,U,37933,999,4483,0,-.328E-5,0
BEIDOU-2 IGSO-5,2011-073A,2026-06-14T18:40:23.710080,1.00273176,.0113882,47.6828,271.5760,221.6228,141.7208,0,U,37948,999,5311,0,-.164E-5,0
LUCH-5A,2011-074B,2026-06-14T12:44:38.779296,1.00269857,.000219,8.7472,73.8464,25.7542,161.3460,0,U,37951,999,5302,0,-.5E-6,0
NIGCOMSAT 1R,2011-077A,2026-06-14T15:04:40.613376,1.00274160,.0002338,0.0457,133.7632,213.4006,184.4487,0,U,38014,999,5293,0,.151E-5,0
WGS F4 (USA 233),2012-003A,2026-06-14T20:22:16.772736,1.00268819,.0000747,0.0233,10.9135,272.2809,13.9268,0,U,38070,999,4412,0,0,0
SES-4,2012-007A,2026-06-14T14:42:37.254816,1.00269714,.0002664,0.0234,29.9102,63.1958,8.4601,0,U,38087,999,5220,0,-.162E-5,0
BEIDOU-2 G5,2012-008A,2026-06-14T21:35:38.858784,1.00271220,.0009147,3.5669,69.7089,272.9219,303.1266,0,U,38091,999,5234,0,.6E-6,0
MUOS-1,2012-009A,2026-06-14T16:03:10.604736,1.00270246,.0058692,5.4711,47.1575,1.6486,354.9583,0,U,38093,999,5241,0,-.125E-5,0
INTELSAT 22 (IS-22),2012-011A,2026-06-14T20:17:39.714720,1.00271272,.00016,0.0400,53.0419,45.5836,181.0114,0,U,38098,999,716,0,0,0
APSTAR-7,2012-013A,2026-06-14T20:18:54.596736,1.00271422,.0002544,0.0223,3.5731,90.2713,190.5157,0,U,38107,999,5178,0,0,0
YAHSAT 1B,2012-016A,2026-06-14T13:20:01.427712,1.00273912,.000223,0.0913,90.6405,15.8543,43.9574,0,U,38245,999,4558,0,.133E-5,0
AEHF-2 (USA 235),2012-019A,2026-06-14T01:03:02.668896,1.00270003,.00023816,6.6438,57.5122,16.4466,187.6027,0,U,38254,999,695,0,-.132E-5,0
JCSAT-13,2012-023A,2026-06-14T20:32:23.305056,1.00269614,.0002989,0.0168,2.4097,109.0749,223.7626,0,U,38331,999,5151,0,-.351E-5,0
VINASAT-2,2012-023B,2026-06-14T20:34:38.089056,1.00271495,.0002075,0.0164,10.2619,82.7387,250.6629,0,U,38332,999,4663,0,-.323E-5,0
NIMIQ 6,2012-026A,2026-06-14T14:23:01.634208,1.00270507,.0002433,0.0215,298.5013,144.8231,304.2279,0,U,38342,999,5038,0,-.167E-5,0
ZHONGXING-2A,2012-028A,2026-06-14T21:26:21.660000,1.00271107,.0003752,1.4472,83.9124,45.3625,193.7500,0,U,38352,999,5127,0,-.288E-5,0
INTELSAT 19 (IS-19),2012-030A,2026-06-14T19:01:42.131136,1.00270597,.0002789,0.0165,345.0698,107.2340,262.2051,0,U,38356,999,5042,0,-.51E-6,0
ECHOSTAR 17,2012-035A,2026-06-14T14:18:32.065344,1.00270605,.0002065,0.0263,8.7324,74.6460,287.0508,0,U,38551,999,5103,0,0,0
METEOSAT-10 (MSG-3),2012-035B,2026-06-14T07:58:31.653120,1.00276282,.00014244,4.6648,61.0321,327.8422,353.7007,0,U,38552,999,5082,0,0,0
SES-5,2012-036A,2026-06-14T18:17:38.889024,1.00269203,.000164,0.0496,312.8635,140.9564,88.6285,0,U,38652,999,4443,0,.39E-6,0
INTELSAT 20 (IS-20),2012-043A,2026-06-14T20:16:32.322720,1.00267923,.0001822,0.0028,41.8549,135.6638,98.2637,0,U,38740,999,5072,0,-.18E-6,0
HYLAS 2,2012-043B,2026-06-14T19:36:23.805216,1.00270172,.0002392,2.4212,81.0964,26.4622,17.0870,0,U,38741,999,5075,0,-.253E-5,0
