ASTRA 1N                
1 37775U 11041A   26165.81919521  .00000125  00000+0  00000+0 0  9998
2 37775   0.0926  43.9474 0006000  50.6246 122.6505  1.00270335 44503
BSAT-3C (JCSAT-110R)    
1 37776U 11041B   26165.88798471 -.00000345  00000+0  00000+0 0  9990
2 37776   0.0167   5.9141 0000030 230.0120  96.8887  1.00271333 50446
PAKSAT-1R               
1 37779U 11042A   26165.55366542  .00000160  00000+0  00000+0 0  9992
2 37779   0.6820  84.6174 0002961 349.8067  65.8486  1.00277209 54459
SES-2                   
1 37809U 11049A   26165.81408218 -.00000190  00000+0  00000+0 0  9993
2 37809   0.0583 103.4714 0002607 339.5955  26.1132  1.00270700 53942
ARABSAT-5C              
1 37810U 11049B   26165.81919521  .00000129  00000+0  00000+0 0  9990
2 37810   0.0503  11.7547 0003401  89.4386 116.8181  1.00270708 54011
EUTELSAT 7 WEST A       
1 37816U 11051A   26165.82990153 -.00000055  00000+0  00000+0 0  9999
2 37816   0.0628   9.3292 0004017  86.4315  98.8054  1.00271128 53854
QUETZSAT 1              
1 37826U 11054A   26165.81607551 -.00000236  00000+0  00000+0 0  9990
2 37826   0.0182  28.4601 0002491  57.5322  33.9112  1.00270847 49854
INTELSAT 18 (IS-18)     
1 37834U 11056A   26165.79562207  .00000059  00000+0  00000+0 0  9998
2 37834   0.0156 296.4719 0001585 145.2148 287.8261  1.00271456 53784
EUTELSAT 16A            
1 37836U 11057A   26165.81919521  .00000110  00000+0  00000+0 0  9997
2 37836   0.0451  14.1796 0005982  72.5800 127.2589  1.00273379  7310
VIASAT-1                
1 37843U 11059A   26165.66592608 -.00000017  00000+0  00000+0 0  9990
2 37843   0.0170 332.4100 0002032 107.9178 307.2652  1.00270861 47290
ASIASAT 7               
1 37933U 11069A   26165.85218527 -.00000328  00000+0  00000+0 0  9992
2 37933   0.0259  71.6221 0001209 343.0229 260.7989  1.00272784 44838
BEIDOU-2 IGSO-5         
1 37948U 11073A   26165.77805220 -.00000164  00000+0  00000+0 0  9994
2 37948  47.6828 271.5760 0113882 221.6228 141.7208  1.00273176 53112
LUCH-5A                 
1 37951U 11074B   26165.53100439 -.00000050  00000+0  00000+0 0  9997
2 37951   8.7472  73.8464 0002190  25.7542 161.3460  1.00269857 53023
NIGCOMSAT 1R            
1 38014U 11077A   26165.62824784  .00000151  00000+0  00000+0 0  9998
2 38014   0.0457 133.7632 0002338 213.4006 184.4487  1.00274160 52937
WGS F4 (USA 233)        
1 38070U 12003A   26165.84880524  .00000000  00000+0  00000+0 0  9991
2 38070   0.0233  10.9135 0000747 272.2809  13.9268  1.00268819 44120
SES-4                   
1 38087U 12007A   26165.61293119 -.00000162  00000+0  00000+0 0  9996
2 38087   0.0234  29.9102 0002664  63.1958   8.4601  1.00269714 52208
BEIDOU-2 G5             
1 38091U 12008A   26165.89975531  .00000060  00000+0  00000+0 0  9993
2 38091   3.5669  69.7089 0009147 272.9219 303.1266  1.00271220 52344
MUOS-1                  
1 38093U 12009A   26165.66887274 -.00000125  00000+0  00000+0 0  9990
2 38093   5.4711  47.1575 0058692   1.6486 354.9583  1.00270246 52418
INTELSAT 22 (IS-22)     
1 38098U 12011A   26165.84559855  .00000000  00000+0  00000+0 0  9990
2 38098   0.0400  53.0419 0001600  45.5836 181.0114  1.00271272  7166
APSTAR-7                
1 38107U 12013A   26165.84646524  .00000000  00000+0  00000+0 0  9993
2 38107   0.0223   3.5731 0002544  90.2713 190.5157  1.00271422 51782
YAHSAT 1B               
1 38245U 12016A   26165.55557208  .00000133  00000+0  00000+0 0  9994
2 38245   0.0913  90.6405 0002230  15.8543  43.9574  1.00273912 45583
AEHF-2 (USA 235)        
1 38254U 12019A   26165.04378089 -.00000132  00000+0  00000+0 0  9999
2 38254   6.6438  57.5122 0002381  16.4466 187.6027  1.00270003  6958
JCSAT-13                
1 38331U 12023A   26165.85582529 -.00000351  00000+0  00000+0 0  9998
2 38331   0.0168   2.4097 0002989 109.0749 223.7626  1.00269614 51514
VINASAT-2               
1 38332U 12023B   26165.85738529 -.00000323  00000+0  00000+0 0  9991
2 38332   0.0164  10.2619 0002075  82.7387 250.6629  1.00271495 46638
NIMIQ 6                 
1 38342U 12026A   26165.59932447 -.00000167  00000+0  00000+0 0  9997
2 38342   0.0215 298.5013 0002433 144.8231 304.2279  1.00270507 50388
ZHONGXING-2A            
1 38352U 12028A   26165.89330625 -.00000288  00000+0  00000+0 0  9997
2 38352   1.4472  83.9124 0003752  45.3625 193.7500  1.00271107 51279
INTELSAT 19 (IS-19)     
1 38356U 12030A   26165.79284874 -.00000051  00000+0  00000+0 0  9995
2 38356   0.0165 345.0698 0002789 107.2340 262.2051  1.00270597 50427
ECHOSTAR 17             
1 38551U 12035A   26165.59620446  .00000000  00000+0  00000+0 0  9997
2 38551   0.0263   8.7324 0002065  74.6460 287.0508  1.00270605 51039
METEOSAT-10 (MSG-3)     
1 38552U 12035B   26165.33231080  .00000000  00000+0  00000+0 0  9992
2 38552   4.6648  61.0321 0001424 327.8422 353.7007  1.00276282 50823
SES-5                   
1 38652U 12036A   26165.76225566  .00000039  00000+0  00000+0 0  9995
2 38652   0.0496 312.8635 0001640 140.9564  88.6285  1.00269203 44438
INTELSAT 20 (IS-20)     
1 38740U 12043A   26165.84481855 -.00000018  00000+0  00000+0 0  9993
2 38740   0.0028  41.8549 0001822 135.6638  98.2637  1.00267923 50729
HYLAS 2                 
1 38741U 12043B   26165.81694219 -.00000253  00000+0  00000+0 0  9992
2 38741   2.4212  81.0964 0002392  26.4622  17.0870  1.00270172 50752
